NORAD_CAT_ID,OBJECT_NAME,OBJECT_TYPE,EPOCH,MEAN_MOTION,ECCENTRICITY,INCLINATION,RA_OF_ASC_NODE,ARG_OF_PERICENTER,MEAN_ANOMALY,BSTAR,MEAN_MOTION_DOT,MEAN_MOTION_DDOT,TLE_LINE0,TLE_LINE1,TLE_LINE2,SEMIMAJOR_AXIS,PERIOD,APOGEE,PERIGEE,DECAYED
53175.0,STARLINK-4292,PAYLOAD,2023-11-26 04:43:36,15.08832749,0.0001829,53.2169,320.3061,112.8929,247.2256,-0.00096233,-0.00015568,0.0,0 STARLINK-4292,1 53175U 22083AV  23330.19695083 -.00015568  00000-0 -96233-3 0  9991,2 53175  53.2169 320.3061 0001829 112.8929 247.2256 15.08832749 75878,6917.903,95.438,541.033,538.502,0.0
53175.0,STARLINK-4292,PAYLOAD,2023-11-27 09:20:35,15.08799186,0.0001322,53.2157,314.9509,81.7016,278.4126,-0.00025918,-4.406e-05,0.0,0 STARLINK-4292,1 53175U 22083AV  23331.38929773 -.00004406  00000-0 -25918-3 0  9990,2 53175  53.2157 314.9509 0001322  81.7016 278.4126 15.08799186 76050,6918.005,95.44,540.785,538.956,0.0
53175.0,STARLINK-4292,PAYLOAD,2023-11-28 02:49:50,15.08847923,0.0001227,53.2166,311.6824,87.3841,272.7291,0.0017307,0.00027369,0.0,0 STARLINK-4292,1 53175U 22083AV  23332.11794427  .00027369  00000-0  17307-2 0  9991,2 53175  53.2166 311.6824 0001227  87.3841 272.7291 15.08847923 76161,6917.856,95.437,540.57,538.872,0.0
53175.0,STARLINK-4292,PAYLOAD,2023-11-28 09:11:22,15.08872149,0.0001257,53.2166,310.4925,89.9372,270.1764,0.0019544,0.00030981,0.0,0 STARLINK-4292,1 53175U 22083AV  23332.38289905  .00030981  00000-0  19544-2 0  9999,2 53175  53.2166 310.4925 0001257  89.9372 270.1764 15.08872149 75568,6917.782,95.436,540.517,538.778,0.0
53175.0,STARLINK-4292,PAYLOAD,2023-11-29 04:15:59,15.08871265,0.000238,53.2169,306.9156,143.0606,217.0551,0.0012598,0.00019836,0.0,0 STARLINK-4292,1 53175U 22083AV  23333.17776897  .00019836  00000-0  12598-2 0  9996,2 53175  53.2169 306.9156 0002380 143.0606 217.0551 15.08871265 76324,6917.785,95.436,541.296,538.003,0.0
53175.0,STARLINK-4292,PAYLOAD,2023-11-29 07:26:45,15.0888094,0.0001342,53.2169,306.3295,100.1873,259.927,0.0019577,0.00031041,0.0,0 STARLINK-4292,1 53175U 22083AV  23333.31024971  .00031041  00000-0  19577-2 0  9997,2 53175  53.2169 306.3295 0001342 100.1873 259.9270 15.08880940 75703,6917.755,95.435,540.549,538.692,0.0
53175.0,STARLINK-4292,PAYLOAD,2023-11-30 04:06:46,15.08845807,0.0001563,53.2159,302.4603,87.1538,272.9633,0.00063459,9.828e-05,0.0,0 STARLINK-4292,1 53175U 22083AV  23334.17137146  .00009828  00000-0  63459-3 0  9998,2 53175  53.2159 302.4603 0001563  87.1538 272.9633 15.08845807 76475,6917.863,95.437,540.809,538.646,0.0
53175.0,STARLINK-4292,PAYLOAD,2023-12-01 03:57:34,15.08836215,0.0001735,53.2164,298.0017,69.1025,291.0153,0.00017014,2.42e-05,0.0,0 STARLINK-4292,1 53175U 22083AV  23335.16497821  .00002420  00000-0  17014-3 0  9994,2 53175  53.2164 298.0017 0001735  69.1025 291.0153 15.08836215 76621,6917.892,95.438,540.957,538.557,0.0
53175.0,STARLINK-4292,PAYLOAD,2023-12-01 07:08:20,15.08847106,0.0001694,53.2179,297.4036,80.1744,279.944,0.00039234,5.963e-05,0.0,0 STARLINK-4292,1 53175U 22083AV  23335.29745401  .00005963  00000-0  39234-3 0  9991,2 53175  53.2179 297.4036 0001694  80.1744 279.9440 15.08847106 76643,6917.859,95.437,540.896,538.552,0.0
53175.0,STARLINK-4292,PAYLOAD,2023-12-02 06:59:05,15.08888558,0.0001435,53.2162,292.9471,96.0723,264.0433,0.0011435,0.00017982,0.0,0 STARLINK-4292,1 53175U 22083AV  23336.29103849  .00017982  00000-0  11435-2 0  9992,2 53175  53.2162 292.9471 0001435  96.0723 264.0433 15.08888558 76793,6917.732,95.434,540.59,538.604,0.0
53175.0,STARLINK-4292,PAYLOAD,2023-12-03 03:39:08,15.08824604,0.0001692,53.218,289.0792,108.833,251.2846,-0.00028071,-4.751e-05,0.0,0 STARLINK-4292,1 53175U 22083AV  23337.15217947 -.00004751  00000-0 -28071-3 0  9990,2 53175  53.2180 289.0792 0001692 108.8330 251.2846 15.08824604 76920,6917.927,95.439,540.963,538.622,0.0
53175.0,STARLINK-4292,PAYLOAD,2023-12-03 06:49:54,15.08822716,0.0001577,53.2171,288.4859,108.9663,251.15,-0.00023288,-3.991e-05,0.0,0 STARLINK-4292,1 53175U 22083AV  23337.28466201 -.00003991  00000-0 -23288-3 0  9993,2 53175  53.2171 288.4859 0001577 108.9663 251.1500 15.08822716 76309,6917.933,95.439,540.889,538.707,0.0
53175.0,STARLINK-4292,PAYLOAD,2023-12-04 01:54:32,15.08840395,0.0001505,53.2169,284.9196,82.7403,277.376,0.00033924,5.115e-05,0.0,0 STARLINK-4292,1 53175U 22083AV  23338.07954280  .00005115  00000-0  33924-3 0  9996,2 53175  53.2169 284.9196 0001505  82.7403 277.3760 15.08840395 77068,6917.879,95.438,540.785,538.703,0.0
53175.0,STARLINK-4292,PAYLOAD,2023-12-04 06:40:42,15.08843728,0.0001513,53.2167,284.0272,93.7905,266.326,0.00056304,8.685e-05,0.0,0 STARLINK-4292,1 53175U 22083AV  23338.27826395  .00008685  00000-0  56304-3 0  9995,2 53175  53.2167 284.0272 0001513  93.7905 266.3260 15.08843728 76458,6917.869,95.437,540.781,538.687,0.0
53175.0,STARLINK-4292,PAYLOAD,2023-12-04 16:13:01,15.08827249,0.0002754,53.2159,282.2337,141.0026,219.1165,6.5744e-05,7.58e-06,0.0,0 STARLINK-4292,1 53175U 22083AV  23338.67570868  .00000758  00000-0  65744-4 0  9992,2 53175  53.2159 282.2337 0002754 141.0026 219.1165 15.08827249 77158,6917.919,95.438,541.69,537.879,0.0
53175.0,STARLINK-4292,PAYLOAD,2023-12-04 20:59:11,15.08820522,0.0001499,53.2164,281.3503,94.7195,265.3968,5.3516e-05,5.63e-06,0.0,0 STARLINK-4292,1 53175U 22083AV  23338.87443868  .00000563  00000-0  53516-4 0  9991,2 53175  53.2164 281.3503 0001499  94.7195 265.3968 15.08820522 76548,6917.94,95.439,540.842,538.768,0.0
53175.0,STARLINK-4292,PAYLOAD,2023-12-05 01:45:20,15.0882737,0.0001567,53.2164,280.4594,78.8073,281.3095,0.00032632,4.907e-05,0.0,0 STARLINK-4292,1 53175U 22083AV  23339.07315921  .00004907  00000-0  32632-3 0  9993,2 53175  53.2164 280.4594 0001567  78.8073 281.3095 15.08827370 77214,6917.919,95.438,540.868,538.7,0.0
53175.0,STARLINK-4292,PAYLOAD,2023-12-05 06:31:30,15.08832204,0.0001542,53.2163,279.5666,84.9035,275.2133,0.00072226,0.00011223,0.0,0 STARLINK-4292,1 53175U 22083AV  23339.27188083  .00011223  00000-0  72226-3 0  9994,2 53175  53.2163 279.5666 0001542  84.9035 275.2133 15.08832204 76600,6917.904,95.438,540.836,538.702,0.0
53175.0,STARLINK-4292,PAYLOAD,2023-12-05 20:49:58,15.08861873,0.000147,53.216,276.8912,78.9191,281.1967,0.0013408,0.00021128,0.0,0 STARLINK-4292,1 53175U 22083AV  23339.86803651  .00021128  00000-0  13408-2 0  9995,2 53175  53.2160 276.8912 0001470  78.9191 281.1967 15.08861873 76691,6917.814,95.436,540.695,538.662,0.0
53175.0,STARLINK-4292,PAYLOAD,2023-12-06 01:36:07,15.08876692,0.0001526,53.2159,275.9999,88.0494,272.0673,0.0014745,0.0002328,0.0,0 STARLINK-4292,1 53175U 22083AV  23340.06675113  .00023280  00000-0  14745-2 0  9995,2 53175  53.2159 275.9999 0001526  88.0494 272.0673 15.08876692 77367,6917.768,95.435,540.689,538.578,0.0
53175.0,STARLINK-4292,PAYLOAD,2023-12-06 19:05:21,15.08865576,0.0001887,53.2157,272.7288,73.0112,287.1087,0.0010061,0.00015772,0.0,0 STARLINK-4292,1 53175U 22083AV  23340.79538680  .00015772  00000-0  10061-2 0  9996,2 53175  53.2157 272.7288 0001887  73.0112 287.1087 15.08865576 77479,6917.802,95.436,540.973,538.362,0.0
53175.0,STARLINK-4292,PAYLOAD,2023-12-07 03:02:16,15.088442,0.0001077,53.2157,271.2416,94.487,265.6245,0.0013237,0.00020844,0.0,0 STARLINK-4292,1 53175U 22083AV  23341.12658492  .00020844  00000-0  13237-2 0  9992,2 53175  53.2157 271.2416 0001077  94.4870 265.6245 15.08844200 77529,6917.868,95.437,540.478,538.987,0.0
53175.0,STARLINK-4292,PAYLOAD,2023-12-07 04:37:39,15.08849291,0.0001021,53.2159,270.9435,100.0752,260.0356,0.0010043,0.00015736,0.0,0 STARLINK-4292,1 53175U 22083AV  23341.19282378  .00015736  00000-0  10043-2 0  9991,2 53175  53.2159 270.9435 0001021 100.0752 260.0356 15.08849291 76896,6917.852,95.437,540.423,539.011,0.0
53175.0,STARLINK-4292,PAYLOAD,2023-12-08 02:53:03,15.08844309,0.0001225,53.2155,266.7798,107.4309,252.6817,0.00042975,6.559e-05,0.0,0 STARLINK-4292,1 53175U 22083AV  23342.12018285  .00006559  00000-0  42975-3 0  9992,2 53175  53.2155 266.7798 0001225 107.4309 252.6817 15.08844309 77673,6917.867,95.437,540.58,538.885,0.0
53175.0,STARLINK-4292,PAYLOAD,2023-12-08 18:46:54,15.08846733,0.0001173,53.2162,263.8053,102.885,257.2273,0.00022161,3.241e-05,0.0,0 STARLINK-4292,1 53175U 22083AV  23342.78258095  .00003241  00000-0  22161-3 0  9999,2 53175  53.2162 263.8053 0001173 102.8850 257.2273 15.08846733 77136,6917.86,95.437,540.536,538.913,0.0
53175.0,STARLINK-4292,PAYLOAD,2023-12-09 01:08:27,15.08852908,0.0001208,53.2163,262.617,99.1714,260.9415,0.00030581,4.584e-05,0.0,0 STARLINK-4292,1 53175U 22083AV  23343.04753796  .00004584  00000-0  30581-3 0  9993,2 53175  53.2163 262.6170 0001208  99.1714 260.9415 15.08852908 77174,6917.841,95.437,540.542,538.87,0.0
53175.0,STARLINK-4292,PAYLOAD,2023-12-09 18:37:42,15.08846294,0.0001605,53.2171,259.3508,67.0039,293.1122,9.7989e-05,1.272e-05,0.0,0 STARLINK-4292,1 53175U 22083AV  23343.77618081  .00001272  00000-0  97989-4 0  9997,2 53175  53.2171 259.3508 0001605  67.0039 293.1122 15.08846294 77923,6917.861,95.437,540.836,538.616,0.0
53175.0,STARLINK-4292,PAYLOAD,2023-12-10 21:39:15,15.0884077,0.0001334,53.2169,254.2921,87.4335,272.681,5.5449e-05,5.95e-06,0.0,0 STARLINK-4292,1 53175U 22083AV  23344.90226118  .00000595  00000-0  55449-4 0  9991,2 53175  53.2169 254.2921 0001334  87.4335 272.6810 15.08840770 77454,6917.878,95.438,540.666,538.82,0.0
53175.0,STARLINK-4292,PAYLOAD,2023-12-11 00:50:01,15.08841432,0.0001658,53.2172,253.7001,91.1506,268.9676,5.8793e-05,6.48e-06,0.0,0 STARLINK-4292,1 53175U 22083AV  23345.03474110  .00000648  00000-0  58793-4 0  9997,2 53175  53.2172 253.7001 0001658  91.1506 268.9676 15.08841432 78110,6917.876,95.437,540.888,538.594,0.0
53175.0,STARLINK-4292,PAYLOAD,2023-12-11 21:30:02,15.0883845,0.0001635,53.217,249.8298,100.2247,259.8929,9.7955e-05,1.271e-05,0.0,0 STARLINK-4292,1 53175U 22083AV  23345.89586215  .00001271  00000-0  97955-4 0  9997,2 53175  53.2170 249.8298 0001635 100.2247 259.8929 15.08838450 77600,6917.885,95.438,540.881,538.619,0.0
